{"type": "FeatureCollection", "features": [ {"type": "Feature", "properties": {"norad_id": 44804, "name": "CARTOSAT-3", "group": "resource", "lat": -77.27486745718866, "lon": -155.72622226951322, "alt_km": 522.6679473220865, "timestamp": "2025-12-26T07:29:18.117455+00:00", "meta": {"OBJECT_NAME": "CARTOSAT-3", "OBJECT_ID": "2019-081A", "EPOCH": "2025-12-25T22:26:42.961344", "MEAN_MOTION": 15.19260006, "ECCENTRICITY": 0.00136252, "INCLINATION": 97.4562, "RA_OF_ASC_NODE": 59.3493, "ARG_OF_PERICENTER": 41.5771, "MEAN_ANOMALY": 318.6497, "EPHEMERIS_TYPE": 0, "CLASSIFICATION_TYPE": "U", "NORAD_CAT_ID": 44804, "ELEMENT_SET_NO": 999, "REV_AT_EPOCH": 33716, "BSTAR": 0.00016898006, "MEAN_MOTION_DOT": 3.501e-05, "MEAN_MOTION_DDOT": 0}, "tle": {"line1": "1 44804U 19081A   25359.93521946  .00003501  00000+0  16898-3 0  9995", "line2": "2 44804  97.4562  59.3493 0013625  41.5771 318.6497 15.19260006337168"}}, "geometry": {"type": "Point", "coordinates": [-155.72622226951322, -77.27486745718866]}}, {"type": "Feature", "properties": {"norad_id": 44819, "name": "GAOFEN-12 01", "group": "resource", "lat": -74.58603817131878, "lon": 36.10338252224958, "alt_km": 635.0311280295937, "timestamp": "2025-12-26T07:29:18.117464+00:00", "meta": {"OBJECT_NAME": "GAOFEN-12 01", "OBJECT_ID": "2019-082A", "EPOCH": "2025-12-25T23:43:29.811936", "MEAN_MOTION": 14.80672257, "ECCENTRICITY": 0.00022823, "INCLINATION": 97.8125, "RA_OF_ASC_NODE": 5.9218, "ARG_OF_PERICENTER": 175.9733, "MEAN_ANOMALY": 184.1498, "EPHEMERIS_TYPE": 0, "CLASSIFICATION_TYPE": "U", "NORAD_CAT_ID": 44819, "ELEMENT_SET_NO": 999, "REV_AT_EPOCH": 32846, "BSTAR": 7.0851199e-05, "MEAN_MOTION_DOT": 4.94e-06, "MEAN_MOTION_DDOT": 0}, "tle": {"line1": "1 44819U 19082A   25359.98853949  .00000494  00000+0  70851-4 0  9996", "line2": "2 44819  97.8125   5.9218 0002282 175.9733 184.1498 14.80672257328464"}}, "geometry": {"type": "Point", "coordinates": [36.10338252224958, -74.58603817131878]}}, {"type": "Feature", "properties": {"norad_id": 44873, "name": "CSG-1", "group": "resource", "lat": 71.23753874422799, "lon": 25.4946085347155, "alt_km": 614.693548545336, "timestamp": "2025-12-26T07:29:18.117475+00:00", "meta": {"OBJECT_NAME": "CSG-1", "OBJECT_ID": "2019-092A", "EPOCH": "2025-12-25T22:54:21.614976", "MEAN_MOTION": 14.8216176, "ECCENTRICITY": 0.00014562, "INCLINATION": 97.8805, "RA_OF_ASC_NODE": 181.0796, "ARG_OF_PERICENTER": 85.2924, "MEAN_ANOMALY": 274.8455, "EPHEMERIS_TYPE": 0, "CLASSIFICATION_TYPE": "U", "NORAD_CAT_ID": 44873, "ELEMENT_SET_NO": 999, "REV_AT_EPOCH": 32581, "BSTAR": 8.3029423e-05, "MEAN_MOTION_DOT": 6.09e-06, "MEAN_MOTION_DDOT": 0}, "tle": {"line1": "1 44873U 19092A   25359.95441684  .00000609  00000+0  83029-4 0  9992", "line2": "2 44873  97.8805 181.0796 0001456  85.2924 274.8455 14.82161760325813"}}, "geometry": {"type": "Point", "coordinates": [25.4946085347155, 71.23753874422799]}}, {"type": "Feature", "properties": {"norad_id": 46277, "name": "NEMO-HD", "group": "resource", "lat": -49.387592970605844, "lon": -129.26311811052844, "alt_km": 451.97348347628576, "timestamp": "2025-12-26T07:29:18.117485+00:00", "meta": {"OBJECT_NAME": "NEMO-HD", "OBJECT_ID": "2020-061F", "EPOCH": "2025-12-25T22:41:58.023744", "MEAN_MOTION": 15.4059647, "ECCENTRICITY": 0.00010264, "INCLINATION": 97.2188, "RA_OF_ASC_NODE": 58.8759, "ARG_OF_PERICENTER": 53.225, "MEAN_ANOMALY": 306.9091, "EPHEMERIS_TYPE": 0, "CLASSIFICATION_TYPE": "U", "NORAD_CAT_ID": 46277, "ELEMENT_SET_NO": 999, "REV_AT_EPOCH": 29527, "BSTAR": 0.00026119081, "MEAN_MOTION_DOT": 0.00010547, "MEAN_MOTION_DDOT": 0}, "tle": {"line1": "1 46277U 20061F   25359.94581046  .00010547  00000+0  26119-3 0  9994", "line2": "2 46277  97.2188  58.8759 0001026  53.2250 306.9091 15.40596470295275"}}, "geometry": {"type": "Point", "coordinates": [-129.26311811052844, -49.387592970605844]}}, {"type": "Feature", "properties": {"norad_id": 46984, "name": "SENTINEL-6A", "group": "resource", "lat": 35.55132388787754, "lon": 152.64581327580999, "alt_km": 1338.2032006197978, "timestamp": "2025-12-26T07:29:18.117495+00:00", "meta": {"OBJECT_NAME": "SENTINEL-6A", "OBJECT_ID": "2020-086A", "EPOCH": "2025-12-25T18:09:57.449088", "MEAN_MOTION": 12.80930775, "ECCENTRICITY": 0.00077549, "INCLINATION": 66.0401, "RA_OF_ASC_NODE": 135.2711, "ARG_OF_PERICENTER": 269.4393, "MEAN_ANOMALY": 90.5733, "EPHEMERIS_TYPE": 0, "CLASSIFICATION_TYPE": "U", "NORAD_CAT_ID": 46984, "ELEMENT_SET_NO": 999, "REV_AT_EPOCH": 23811, "BSTAR": 4.727934e-05, "MEAN_MOTION_DOT": -5e-07, "MEAN_MOTION_DDOT": 0}, "tle": {"line1": "1 46984U 20086A   25359.75691492 -.00000050  00000+0  47279-4 0  9992", "line2": "2 46984  66.0401 135.2711 0007754 269.4393  90.5733 12.80930775238113"}}, "geometry": {"type": "Point", "coordinates": [152.64581327580999, 35.55132388787754]}}, {"type": "Feature", "properties": {"norad_id": 48079, "name": "GAOFEN-12 02", "group": "resource", "lat": -63.249389877691044, "lon": 10.424451152405053, "alt_km": 636.1822592149074, "timestamp": "2025-12-26T07:29:18.117505+00:00", "meta": {"OBJECT_NAME": "GAOFEN-12 02", "OBJECT_ID": "2021-026A", "EPOCH": "2025-12-25T23:40:10.271136", "MEAN_MOTION": 14.80690282, "ECCENTRICITY": 0.00035394, "INCLINATION": 97.9858, "RA_OF_ASC_NODE": 353.9291, "ARG_OF_PERICENTER": 74.5205, "MEAN_ANOMALY": 285.6398, "EPHEMERIS_TYPE": 0, "CLASSIFICATION_TYPE": "U", "NORAD_CAT_ID": 48079, "ELEMENT_SET_NO": 999, "REV_AT_EPOCH": 25613, "BSTAR": 7.3952769e-05, "MEAN_MOTION_DOT": 5.16e-06, "MEAN_MOTION_DDOT": 0}, "tle": {"line1": "1 48079U 21026A   25359.98622999  .00000516  00000+0  73953-4 0  9999", "line2": "2 48079  97.9858 353.9291 0003539  74.5205 285.6398 14.80690282256139"}}, "geometry": {"type": "Point", "coordinates": [10.424451152405053, -63.249389877691044]}}, {"type": "Feature", "properties": {"norad_id": 48268, "name": "PLEIADES NEO 3", "group": "resource", "lat": 50.11093627494481, "lon": 63.00214443642808, "alt_km": 618.7441583509199, "timestamp": "2025-12-26T07:29:18.117515+00:00", "meta": {"OBJECT_NAME": "PLEIADES NEO 3", "OBJECT_ID": "2021-034A", "EPOCH": "2025-12-25T23:09:22.082688", "MEAN_MOTION": 14.81671828, "ECCENTRICITY": 0.00013492, "INCLINATION": 97.8942, "RA_OF_ASC_NODE": 72.2159, "ARG_OF_PERICENTER": 90.1578, "MEAN_ANOMALY": 269.979, "EPHEMERIS_TYPE": 0, "CLASSIFICATION_TYPE": "U", "NORAD_CAT_ID": 48268, "ELEMENT_SET_NO": 999, "REV_AT_EPOCH": 25200, "BSTAR": 2.0958615e-05, "MEAN_MOTION_DOT": 1.13e-06, "MEAN_MOTION_DDOT": 0}, "tle": {"line1": "1 48268U 21034A   25359.96483892  .00000113  00000+0  20959-4 0  9994", "line2": "2 48268  97.8942  72.2159 0001349  90.1578 269.9790 14.81671828252009"}}, "geometry": {"type": "Point", "coordinates": [63.00214443642808, 50.11093627494481]}}, {"type": "Feature", "properties": {"norad_id": 49070, "name": "PLEIADES NEO 4", "group": "resource", "lat": -50.34114929675199, "lon": -117.0810390923111, "alt_km": 631.7518134067068, "timestamp": "2025-12-26T07:29:18.117527+00:00", "meta": {"OBJECT_NAME": "PLEIADES NEO 4", "OBJECT_ID": "2021-073E", "EPOCH": "2025-12-25T22:20:43.621152", "MEAN_MOTION": 14.81671141, "ECCENTRICITY": 0.00013665, "INCLINATION": 97.8943, "RA_OF_ASC_NODE": 72.1787, "ARG_OF_PERICENTER": 88.4676, "MEAN_ANOMALY": 271.6693, "EPHEMERIS_TYPE": 0, "CLASSIFICATION_TYPE": "U", "NORAD_CAT_ID": 49070, "ELEMENT_SET_NO": 999, "REV_AT_EPOCH": 23571, "BSTAR": -9.5364176e-05, "MEAN_MOTION_DOT": -8.02e-06, "MEAN_MOTION_DDOT": 0}, "tle": {"line1": "1 49070U 21073E   25359.93106043 -.00000802  00000+0 -95364-4 0  9995", "line2": "2 49070  97.8943  72.1787 0001366  88.4676 271.6693 14.81671141235715"}}, "geometry": {"type": "Point", "coordinates": [-117.0810390923111, -50.34114929675199]}}, {"type": "Feature", "properties": {"norad_id": 49260, "name": "LANDSAT 9", "group": "resource", "lat": 49.96620236496967, "lon": -101.88206229011428, "alt_km": 697.3231738511076, "timestamp": "2025-12-26T07:29:18.117538+00:00", "meta": {"OBJECT_NAME": "LANDSAT 9", "OBJECT_ID": "2021-088A", "EPOCH": "2025-12-25T19:21:38.919744", "MEAN_MOTION": 14.57111045, "ECCENTRICITY": 0.0001112, "INCLINATION": 98.2077, "RA_OF_ASC_NODE": 67.7273, "ARG_OF_PERICENTER": 93.391, "MEAN_ANOMALY": 266.7416, "EPHEMERIS_TYPE": 0, "CLASSIFICATION_TYPE": "U", "NORAD_CAT_ID": 49260, "ELEMENT_SET_NO": 999, "REV_AT_EPOCH": 22575, "BSTAR": 0.00011045343, "MEAN_MOTION_DOT": 4.52e-06, "MEAN_MOTION_DDOT": 0}, "tle": {"line1": "1 49260U 21088A   25359.80670046  .00000452  00000+0  11045-3 0  9999", "line2": "2 49260  98.2077  67.7273 0001112  93.3910 266.7416 14.57111045225750"}}, "geometry": {"type": "Point", "coordinates": [-101.88206229011428, 49.96620236496967]}}, {"type": "Feature", "properties": {"norad_id": 51444, "name": "CSG-2", "group": "resource", "lat": -71.35204182363508, "lon": -154.33774073914597, "alt_km": 630.7319596991956, "timestamp": "2025-12-26T07:29:18.117547+00:00", "meta": {"OBJECT_NAME": "CSG-2", "OBJECT_ID": "2022-008A", "EPOCH": "2025-12-25T23:42:58.629312", "MEAN_MOTION": 14.82156312, "ECCENTRICITY": 0.00014442, "INCLINATION": 97.8805, "RA_OF_ASC_NODE": 181.1115, "ARG_OF_PERICENTER": 82.1491, "MEAN_ANOMALY": 277.9886, "EPHEMERIS_TYPE": 0, "CLASSIFICATION_TYPE": "U", "NORAD_CAT_ID": 51444, "ELEMENT_SET_NO": 999, "REV_AT_EPOCH": 21093, "BSTAR": 6.6530239e-05, "MEAN_MOTION_DOT": 4.78e-06, "MEAN_MOTION_DDOT": 0}, "tle": {"line1": "1 51444U 22008A   25359.98817858  .00000478  00000+0  66530-4 0  9990", "line2": "2 51444  97.8805 181.1115 0001444  82.1491 277.9886 14.82156312210938"}}, "geometry": {"type": "Point", "coordinates": [-154.33774073914597, -71.35204182363508]}}]}